NORAD_CAT_ID,OBJECT_NAME,OBJECT_TYPE,EPOCH,MEAN_MOTION,ECCENTRICITY,INCLINATION,RA_OF_ASC_NODE,ARG_OF_PERICENTER,MEAN_ANOMALY,BSTAR,MEAN_MOTION_DOT,MEAN_MOTION_DDOT,TLE_LINE0,TLE_LINE1,TLE_LINE2,SEMIMAJOR_AXIS,PERIOD,APOGEE,PERIGEE,DECAYED
52118.0,STARLINK-3743,PAYLOAD,2023-11-03 07:48:24,15.08841622,0.000202,53.2192,327.9809,93.2281,266.8942,1.5952e-05,-3.4e-07,0.0,0 STARLINK-3743,1 52118U 22029AG  23307.32528632 -.00000034  00000-0  15952-4 0  9992,2 52118  53.2192 327.9809 0002020  93.2281 266.8942 15.08841622 91350,6917.875,95.437,541.138,538.343,0.0
52118.0,STARLINK-3743,PAYLOAD,2023-11-03 18:56:06,15.08843314,0.0002139,53.2181,325.8996,82.7421,277.3814,2.3093e-05,7.9e-07,0.0,0 STARLINK-3743,1 52118U 22029AG  23307.78896361  .00000079  00000-0  23093-4 0  9992,2 52118  53.2181 325.8996 0002139  82.7421 277.3814 15.08843314 91425,6917.87,95.437,541.215,538.256,0.0
52118.0,STARLINK-3743,PAYLOAD,2023-11-04 04:28:25,15.08844144,0.0001978,53.2182,324.1146,88.1063,272.0156,0.00014092,1.956e-05,0.0,0 STARLINK-3743,1 52118U 22029AG  23308.18640306  .00001956  00000-0  14092-3 0  9996,2 52118  53.2182 324.1146 0001978  88.1063 272.0156 15.08844144 91486,6917.868,95.437,541.101,538.364,0.0
52118.0,STARLINK-3743,PAYLOAD,2023-11-04 07:39:11,15.08849032,0.0001826,53.2178,323.5186,91.5918,268.5283,0.00014846,2.076e-05,0.0,0 STARLINK-3743,1 52118U 22029AG  23308.31888017  .00002076  00000-0  14846-3 0  9995,2 52118  53.2178 323.5186 0001826  91.5918 268.5283 15.08849032 91502,6917.853,95.437,540.981,538.455,0.0
52118.0,STARLINK-3743,PAYLOAD,2023-11-05 07:29:58,15.08852241,0.0001848,53.2173,319.0586,93.7635,266.3569,0.00023283,3.421e-05,0.0,0 STARLINK-3743,1 52118U 22029AG  23309.31247841  .00003421  00000-0  23283-3 0  9990,2 52118  53.2173 319.0586 0001848  93.7635 266.3569 15.08852241 91650,6917.843,95.437,540.986,538.43,0.0
52118.0,STARLINK-3743,PAYLOAD,2023-11-06 10:31:30,15.08870578,0.0001932,53.2181,314.0038,86.4724,273.6489,0.00053665,8.27e-05,0.0,0 STARLINK-3743,1 52118U 22029AG  23310.43854745  .00008270  00000-0  53665-3 0  9996,2 52118  53.2181 314.0038 0001932  86.4724 273.6489 15.08870578 91822,6917.787,95.436,540.988,538.315,0.0
52118.0,STARLINK-3743,PAYLOAD,2023-11-07 04:00:48,15.08791113,0.0001669,53.2185,310.7368,99.6096,260.5084,-0.00084192,-0.00013644,0.0,0 STARLINK-3743,1 52118U 22029AG  23311.16722345 -.00013644  00000-0 -84192-3 0  9999,2 52118  53.2185 310.7368 0001669  99.6096 260.5084 15.08791113 91935,6918.03,95.441,541.049,538.74,0.0
52118.0,STARLINK-3743,PAYLOAD,2023-11-07 11:57:44,15.08799209,0.0001438,53.2177,309.2469,97.7368,262.3787,-0.00043026,-7.121e-05,0.0,0 STARLINK-3743,1 52118U 22029AG  23311.49843085 -.00007121  00000-0 -43026-3 0  9994,2 52118  53.2177 309.2469 0001438  97.7368 262.3787 15.08799209 91985,6918.005,95.44,540.865,538.875,0.0
52118.0,STARLINK-3743,PAYLOAD,2023-11-07 16:43:52,15.08833522,9.26e-05,53.218,308.3558,107.5224,252.587,0.00030706,4.602e-05,0.0,0 STARLINK-3743,1 52118U 22029AG  23311.69713999  .00004602  00000-0  30706-3 0  9996,2 52118  53.2180 308.3558 0000926 107.5224 252.5870 15.08833522 92016,6917.9,95.438,540.406,539.125,0.0
52118.0,STARLINK-3743,PAYLOAD,2023-11-08 05:26:57,15.08849769,0.0001572,53.2174,305.9769,85.6191,274.4981,0.00053292,8.206e-05,0.0,0 STARLINK-3743,1 52118U 22029AG  23312.22705946  .00008206  00000-0  53292-3 0  9998,2 52118  53.2174 305.9769 0001572  85.6191 274.4981 15.08849769 92097,6917.851,95.437,540.803,538.628,0.0
52118.0,STARLINK-3743,PAYLOAD,2023-11-08 16:34:39,15.08851579,0.000145,53.2172,303.8963,92.9259,267.1899,0.00057212,8.832e-05,0.0,0 STARLINK-3743,1 52118U 22029AG  23312.69073843  .00008832  00000-0  57212-3 0  9994,2 52118  53.2172 303.8963 0001450  92.9259 267.1899 15.08851579 92166,6917.845,95.437,540.713,538.707,0.0
52118.0,STARLINK-3743,PAYLOAD,2023-11-09 03:42:21,15.08846334,0.0001588,53.2182,301.8166,95.8232,264.2941,0.00045508,6.963e-05,0.0,0 STARLINK-3743,1 52118U 22029AG  23313.15442027  .00006963  00000-0  45508-3 0  9998,2 52118  53.2182 301.8166 0001588  95.8232 264.2941 15.08846334 92232,6917.861,95.437,540.825,538.627,0.0
52118.0,STARLINK-3743,PAYLOAD,2023-11-09 08:28:30,15.08851937,0.0001332,53.2171,300.923,110.4824,249.6312,0.00057725,8.914e-05,0.0,0 STARLINK-3743,1 52118U 22029AG  23313.35313333  .00008914  00000-0  57725-3 0  9999,2 52118  53.2171 300.9230 0001332 110.4824 249.6312 15.08851937 92267,6917.844,95.437,540.63,538.787,0.0
52118.0,STARLINK-3743,PAYLOAD,2023-11-09 16:25:26,15.08841173,0.0001333,53.2174,299.4355,90.7618,269.3527,0.00024978,3.69e-05,0.0,0 STARLINK-3743,1 52118U 22029AG  23313.68433802  .00003690  00000-0  24978-3 0  9999,2 52118  53.2174 299.4355 0001333  90.7618 269.3527 15.08841173 92316,6917.877,95.437,540.664,538.82,0.0
52118.0,STARLINK-3743,PAYLOAD,2023-11-10 08:19:17,15.08861155,0.0001473,53.2191,296.4589,106.455,253.6604,-3.3021e-05,-8.14e-06,0.0,0 STARLINK-3743,1 52118U 22029AG  23314.34672710 -.00000814  00000-0 -33021-4 0  9993,2 52118  53.2191 296.4589 0001473 106.4550 253.6604 15.08861155 92411,6917.816,95.436,540.7,538.662,0.0
52118.0,STARLINK-3743,PAYLOAD,2023-11-10 16:16:12,15.08847487,0.0001493,53.2177,294.9717,97.9034,262.2128,-6.7769e-05,-1.367e-05,0.0,0 STARLINK-3743,1 52118U 22029AG  23314.67792810 -.00001367  00000-0 -67769-4 0  9993,2 52118  53.2177 294.9717 0001493  97.9034 262.2128 15.08847487 92468,6917.858,95.437,540.755,538.69,0.0
52118.0,STARLINK-3743,PAYLOAD,2023-11-11 04:59:18,15.08851481,0.0001561,53.2182,292.5928,103.8941,256.2224,-1.7207e-05,-5.62e-06,0.0,0 STARLINK-3743,1 52118U 22029AG  23315.20784855 -.00000562  00000-0 -17207-4 0  9991,2 52118  53.2182 292.5928 0001561 103.8941 256.2224 15.08851481 92540,6917.845,95.437,540.79,538.63,0.0
52118.0,STARLINK-3743,PAYLOAD,2023-11-11 22:28:33,15.08836181,0.000161,53.218,289.3242,91.4267,268.6909,6.2639e-05,7.09e-06,0.0,0 STARLINK-3743,1 52118U 22029AG  23315.93649482  .00000709  00000-0  62639-4 0  9997,2 52118  53.2180 289.3242 0001610  91.4267 268.6909 15.08836181 92658,6917.892,95.438,540.871,538.643,0.0
52118.0,STARLINK-3743,PAYLOAD,2023-11-12 03:14:42,15.08836363,0.0001648,53.2181,288.4312,94.4001,265.7179,3.8428e-05,3.24e-06,0.0,0 STARLINK-3743,1 52118U 22029AG  23316.13521518  .00000324  00000-0  38428-4 0  9991,2 52118  53.2181 288.4312 0001648  94.4001 265.7179 15.08836363 92689,6917.892,95.438,540.897,538.616,0.0
52118.0,STARLINK-3743,PAYLOAD,2023-11-12 04:50:05,15.08842781,0.0001607,53.2181,288.1333,97.3848,262.7327,-2.8517e-05,-7.42e-06,0.0,0 STARLINK-3743,1 52118U 22029AG  23316.20145329 -.00000742  00000-0 -28517-4 0  9995,2 52118  53.2181 288.1333 0001607  97.3848 262.7327 15.08842781 92699,6917.872,95.437,540.849,538.625,0.0
52118.0,STARLINK-3743,PAYLOAD,2023-11-12 22:19:20,15.08838572,0.0001738,53.2179,284.8625,100.4966,259.6222,5.1838e-05,5.37e-06,0.0,0 STARLINK-3743,1 52118U 22029AG  23316.93009421  .00000537  00000-0  51838-4 0  9999,2 52118  53.2179 284.8625 0001738 100.4966 259.6222 15.08838572 92800,6917.885,95.438,540.952,538.547,0.0
52118.0,STARLINK-3743,PAYLOAD,2023-11-13 03:05:29,15.08843412,0.00017,53.2177,283.9709,99.575,260.5435,9.2872e-05,1.19e-05,0.0,0 STARLINK-3743,1 52118U 22029AG  23317.12881007  .00001190  00000-0  92872-4 0  9998,2 52118  53.2177 283.9709 0001700  99.5750 260.5435 15.08843412 92838,6917.87,95.437,540.911,538.559,0.0
52118.0,STARLINK-3743,PAYLOAD,2023-11-13 07:51:38,15.0885148,0.0001761,53.218,283.0782,101.9947,258.1242,7.1643e-05,8.53e-06,0.0,0 STARLINK-3743,1 52118U 22029AG  23317.32752541  .00000853  00000-0  71643-4 0  9998,2 52118  53.2180 283.0782 0001761 101.9947 258.1242 15.08851480 92863,6917.845,95.437,540.929,538.492,0.0
52118.0,STARLINK-3743,PAYLOAD,2023-11-13 22:10:07,15.08836021,0.0001688,53.2177,280.3999,104.4639,255.654,9.8907e-05,1.286e-05,0.0,0 STARLINK-3743,1 52118U 22029AG  23317.92369483  .00001286  00000-0  98907-4 0  9996,2 52118  53.2177 280.3999 0001688 104.4639 255.6540 15.08836021 92950,6917.893,95.438,540.925,538.59,0.0
52118.0,STARLINK-3743,PAYLOAD,2023-11-14 04:31:39,15.08838532,0.0001557,53.2178,279.2149,92.6375,267.4795,9.835e-05,1.278e-05,0.0,0 STARLINK-3743,1 52118U 22029AG  23318.18865507  .00001278  00000-0  98350-4 0  9996,2 52118  53.2178 279.2149 0001557  92.6375 267.4795 15.08838532 92991,6917.885,95.438,540.827,538.673,0.0
52118.0,STARLINK-3743,PAYLOAD,2023-11-14 22:00:54,15.08838332,0.0001533,53.2177,275.9443,96.2232,263.8935,1.3135e-05,-7.9e-07,0.0,0 STARLINK-3743,1 52118U 22029AG  23318.91729886 -.00000079  00000-0  13135-4 0  9993,2 52118  53.2177 275.9443 0001533  96.2232 263.8935 15.08838332 93104,6917.885,95.438,540.811,538.69,0.0
52118.0,STARLINK-3743,PAYLOAD,2023-11-15 05:57:49,15.08845641,0.0001532,53.2178,274.4581,92.2857,267.831,8.494e-05,1.064e-05,0.0,0 STARLINK-3743,1 52118U 22029AG  23319.24849268  .00001064  00000-0  84940-4 0  9993,2 52118  53.2178 274.4581 0001532  92.2857 267.8310 15.08845641 93157,6917.863,95.437,540.788,538.668,0.0
52118.0,STARLINK-3743,PAYLOAD,2023-11-15 13:54:45,15.08848146,0.0001521,53.2184,272.9697,82.3062,277.8103,1.2518e-06,-2.68e-06,0.0,0 STARLINK-3743,1 52118U 22029AG  23319.57969209 -.00000268  00000-0  12518-5 0  9996,2 52118  53.2184 272.9697 0001521  82.3062 277.8103 15.08848146 93201,6917.855,95.437,540.773,538.668,0.0
52118.0,STARLINK-3743,PAYLOAD,2023-11-16 02:37:51,15.08833879,0.0001639,53.2185,270.5916,93.6219,266.496,5.6173e-05,6.06e-06,0.0,0 STARLINK-3743,1 52118U 22029AG  23320.10962256  .00000606  00000-0  56173-4 0  9991,2 52118  53.2185 270.5916 0001639  93.6219 266.4960 15.08833879 93289,6917.899,95.438,540.898,538.63,0.0
52118.0,STARLINK-3743,PAYLOAD,2023-11-16 05:48:37,15.08837014,0.0001663,53.2184,269.9978,90.0839,270.0344,4.2438e-05,3.87e-06,0.0,0 STARLINK-3743,1 52118U 22029AG  23320.24210128  .00000387  00000-0  42438-4 0  9995,2 52118  53.2184 269.9978 0001663  90.0839 270.0344 15.08837014 93309,6917.89,95.438,540.905,538.604,0.0
